{
  "type": "FeatureCollection",
  "features": [
    {
      "type": "Feature",
      "properties": {
        "norad_id": 67124,
        "name": "STARLINK-36195",
        "group": "last-30-days",
        "lat": 27.35160743481701,
        "lon": -94.2663360455835,
        "alt_km": 330.01872169334365,
        "timestamp": "2025-12-26T12:57:37.979639+00:00",
        "meta_object_name": "STARLINK-36195",
        "meta_object_id": "2025-299Y",
        "meta_epoch": "2025-12-26T06:00:02.999808",
        "meta_mean_motion": 15.80107585,
        "meta_eccentricity": 0.00016184,
        "meta_inclination": 42.9976,
        "meta_ra_of_asc_node": 233.7829,
        "meta_arg_of_pericenter": 265.3863,
        "meta_mean_anomaly": 286.0509,
        "meta_ephemeris_type": 0,
        "meta_classification_type": "U",
        "meta_norad_cat_id": 67124,
        "meta_element_set_no": 999,
        "meta_rev_at_epoch": 298,
        "meta_bstar": -0.010674012,
        "meta_mean_motion_dot": -0.01807732,
        "meta_mean_motion_ddot": 0,
        "tle_line1": "1 67124U 25299Y   25360.25003472 -.01807732  00000+0 -10674-1 0  9994",
        "tle_line2": "2 67124  42.9976 233.7829 0001618 265.3863 286.0509 15.80107585  2981"
      },
      "geometry": {
        "type": "Point",
        "coordinates": [
          -94.2663360455835,
          27.35160743481701
        ]
      }
    },
    {
      "type": "Feature",
      "properties": {
        "norad_id": 67125,
        "name": "STARLINK-36219",
        "group": "last-30-days",
        "lat": 28.265169464703526,
        "lon": -92.7500509219126,
        "alt_km": 329.7816983387129,
        "timestamp": "2025-12-26T12:57:37.979649+00:00",
        "meta_object_name": "STARLINK-36219",
        "meta_object_id": "2025-299Z",
        "meta_epoch": "2025-12-26T06:00:02.999808",
        "meta_mean_motion": 15.80115815,
        "meta_eccentricity": 0.00015579,
        "meta_inclination": 42.9972,
        "meta_ra_of_asc_node": 233.7782,
        "meta_arg_of_pericenter": 268.3976,
        "meta_mean_anomaly": 284.6542,
        "meta_ephemeris_type": 0,
        "meta_classification_type": "U",
        "meta_norad_cat_id": 67125,
        "meta_element_set_no": 999,
        "meta_rev_at_epoch": 298,
        "meta_bstar": -0.010647233,
        "meta_mean_motion_dot": -0.01804306,
        "meta_mean_motion_ddot": 0,
        "tle_line1": "1 67125U 25299Z   25360.25003472 -.01804306  00000+0 -10647-1 0  9999",
        "tle_line2": "2 67125  42.9972 233.7782 0001557 268.3976 284.6542 15.80115815  2982"
      },
      "geometry": {
        "type": "Point",
        "coordinates": [
          -92.7500509219126,
          28.265169464703526
        ]
      }
    },
    {
      "type": "Feature",
      "properties": {
        "norad_id": 67126,
        "name": "STARLINK-36223",
        "group": "last-30-days",
        "lat": 29.293132732141128,
        "lon": -90.97653397802786,
        "alt_km": 329.6926042380437,
        "timestamp": "2025-12-26T12:57:37.979659+00:00",
        "meta_object_name": "STARLINK-36223",
        "meta_object_id": "2025-299AA",
        "meta_epoch": "2025-12-26T06:00:02.999808",
        "meta_mean_motion": 15.80119962,
        "meta_eccentricity": 0.00015851,
        "meta_inclination": 42.9974,
        "meta_ra_of_asc_node": 233.7737,
        "meta_arg_of_pericenter": 266.1949,
        "meta_mean_anomaly": 288.7202,
        "meta_ephemeris_type": 0,
        "meta_classification_type": "U",
        "meta_norad_cat_id": 67126,
        "meta_element_set_no": 999,
        "meta_rev_at_epoch": 298,
        "meta_bstar": -0.010678559,
        "meta_mean_motion_dot": -0.01809289,
        "meta_mean_motion_ddot": 0,
        "tle_line1": "1 67126U 25299AA  25360.25003472 -.01809289  00000+0 -10679-1 0  9990",
        "tle_line2": "2 67126  42.9974 233.7737 0001585 266.1949 288.7202 15.80119962  2987"
      },
      "geometry": {
        "type": "Point",
        "coordinates": [
          -90.97653397802786,
          29.293132732141128
        ]
      }
    },
    {
      "type": "Feature",
      "properties": {
        "norad_id": 67127,
        "name": "STARLINK-36164",
        "group": "last-30-days",
        "lat": 30.223190842532524,
        "lon": -89.3030735645823,
        "alt_km": 329.5463267311461,
        "timestamp": "2025-12-26T12:57:37.979669+00:00",
        "meta_object_name": "STARLINK-36164",
        "meta_object_id": "2025-299AB",
        "meta_epoch": "2025-12-26T06:00:02.999808",
        "meta_mean_motion": 15.80127153,
        "meta_eccentricity": 0.0001568,
        "meta_inclination": 42.9973,
        "meta_ra_of_asc_node": 233.7693,
        "meta_arg_of_pericenter": 265.1468,
        "meta_mean_anomaly": 291.4868,
        "meta_ephemeris_type": 0,
        "meta_classification_type": "U",
        "meta_norad_cat_id": 67127,
        "meta_element_set_no": 999,
        "meta_rev_at_epoch": 298,
        "meta_bstar": -0.010655493,
        "meta_mean_motion_dot": -0.01806377,
        "meta_mean_motion_ddot": 0,
        "tle_line1": "1 67127U 25299AB  25360.25003472 -.01806377  00000+0 -10655-1 0  9990",
        "tle_line2": "2 67127  42.9973 233.7693 0001568 265.1468 291.4868 15.80127153  2984"
      },
      "geometry": {
        "type": "Point",
        "coordinates": [
          -89.3030735645823,
          30.223190842532524
        ]
      }
    },
    {
      "type": "Feature",
      "properties": {
        "norad_id": 67128,
        "name": "STARLINK-35685",
        "group": "last-30-days",
        "lat": 32.571630924188334,
        "lon": -84.72875328303275,
        "alt_km": 329.1461226572592,
        "timestamp": "2025-12-26T12:57:37.979679+00:00",
        "meta_object_name": "STARLINK-35685",
        "meta_object_id": "2025-299AC",
        "meta_epoch": "2025-12-26T06:00:02.999808",
        "meta_mean_motion": 15.80099562,
        "meta_eccentricity": 0.00014797,
        "meta_inclination": 42.9971,
        "meta_ra_of_asc_node": 233.7574,
        "meta_arg_of_pericenter": 272.3555,
        "meta_mean_anomaly": 288.866,
        "meta_ephemeris_type": 0,
        "meta_classification_type": "U",
        "meta_norad_cat_id": 67128,
        "meta_element_set_no": 999,
        "meta_rev_at_epoch": 298,
        "meta_bstar": -0.010673139,
        "meta_mean_motion_dot": -0.0180689,
        "meta_mean_motion_ddot": 0,
        "tle_line1": "1 67128U 25299AC  25360.25003472 -.01806890  00000+0 -10673-1 0  9991",
        "tle_line2": "2 67128  42.9971 233.7574 0001479 272.3555 288.8660 15.80099562  2981"
      },
      "geometry": {
        "type": "Point",
        "coordinates": [
          -84.72875328303275,
          32.571630924188334
        ]
      }
    },
    {
      "type": "Feature",
      "properties": {
        "norad_id": 67129,
        "name": "STARLINK-36214",
        "group": "last-30-days",
        "lat": 31.248315729497563,
        "lon": -87.37336226458264,
        "alt_km": 329.4023491549724,
        "timestamp": "2025-12-26T12:57:37.979691+00:00",
        "meta_object_name": "STARLINK-36214",
        "meta_object_id": "2025-299AD",
        "meta_epoch": "2025-12-26T06:00:02.999808",
        "meta_mean_motion": 15.80123699,
        "meta_eccentricity": 0.00016094,
        "meta_inclination": 42.9973,
        "meta_ra_of_asc_node": 233.7642,
        "meta_arg_of_pericenter": 267.1968,
        "meta_mean_anomaly": 291.3906,
        "meta_ephemeris_type": 0,
        "meta_classification_type": "U",
        "meta_norad_cat_id": 67129,
        "meta_element_set_no": 999,
        "meta_rev_at_epoch": 298,
        "meta_bstar": -0.010643257,
        "meta_mean_motion_dot": -0.0180434,
        "meta_mean_motion_ddot": 0,
        "tle_line1": "1 67129U 25299AD  25360.25003472 -.01804340  00000+0 -10643-1 0  9997",
        "tle_line2": "2 67129  42.9973 233.7642 0001609 267.1968 291.3906 15.80123699  2986"
      },
      "geometry": {
        "type": "Point",
        "coordinates": [
          -87.37336226458264,
          31.248315729497563
        ]
      }
    },
    {
      "type": "Feature",
      "properties": {
        "norad_id": 67130,
        "name": "STARLINK-36194",
        "group": "last-30-days",
        "lat": 34.63213800914018,
        "lon": -80.1825858764507,
        "alt_km": 329.0998590823692,
        "timestamp": "2025-12-26T12:57:37.979702+00:00",
        "meta_object_name": "STARLINK-36194",
        "meta_object_id": "2025-299AE",
        "meta_epoch": "2025-12-26T06:00:02.999808",
        "meta_mean_motion": 15.80005412,
        "meta_eccentricity": 0.00012899,
        "meta_inclination": 42.9972,
        "meta_ra_of_asc_node": 233.748,
        "meta_arg_of_pericenter": 265.9966,
        "meta_mean_anomaly": 299.6378,
        "meta_ephemeris_type": 0,
        "meta_classification_type": "U",
        "meta_norad_cat_id": 67130,
        "meta_element_set_no": 999,
        "meta_rev_at_epoch": 298,
        "meta_bstar": -0.010692195,
        "meta_mean_motion_dot": -0.01802634,
        "meta_mean_motion_ddot": 0,
        "tle_line1": "1 67130U 25299AE  25360.25003472 -.01802634  00000+0 -10692-1 0  9997",
        "tle_line2": "2 67130  42.9972 233.7480 0001289 265.9966 299.6378 15.80005412  2981"
      },
      "geometry": {
        "type": "Point",
        "coordinates": [
          -80.1825858764507,
          34.63213800914018
        ]
      }
    }
  ]
}